LUDI TANCE 1-01B (L-SA*)
1 51822U 22018A   26129.15589701  .00000491  00000+0  58880-4 0  9993
2 51822  97.8101 137.1276 0001598  92.4426 267.6973 14.88411186227905
JILIN-1 GAOFEN 03D15    
1 51839U 22019R   26129.23754307  .00271469  28918-4  92183-3 0  9998
2 51839  97.3637 224.4322 0005050 234.7081 125.3720 15.89839108233917
JILIN-1 GAOFEN 03D12    
1 51841U 22019T   26129.15270498  .00286926  32462-4  92959-3 0  9990
2 51841  97.3607 224.2786 0005655 222.6407 137.4428 15.90762076233907
2022-023F               
1 51951U 22023F   26128.94689111  .00021503  00000+0  86106-3 0  9992
2 51951  63.4486  46.8752 0127570 344.1937  15.5208 15.17827836231756
MERIDIAN 10             
1 52145U 22030A   26128.09371039  .00000235  00000+0  00000+0 0  9993
2 52145  62.6801 145.0929 6773133 272.8903  17.7285  2.00616612 30224
OMNI-L1                 
1 52157U 22033A   26129.17130602  .00001517  00000+0  19488-3 0  9996
2 52157  97.8394 209.1101 0006390  61.6595 298.5263 14.82604007221671
ENMAP                   
1 52159U 22033C   26129.22588265 -.00000046  00000+0  62457-6 0  9990
2 52159  97.9782 212.0284 0001473  86.2928 273.8449 14.74954252220919
ARCSAT-1                
1 52161U 22033E   26129.21009648  .00010554  00000+0  17285-3 0  9995
2 52161  97.2730 220.9368 0004209   0.9876 359.1384 15.52661617229657
GLOBAL-18               
1 52196U 22034B   26129.12933405  .00018796  00000+0  40453-3 0  9990
2 52196  52.9824  83.0613 0005783 116.5081 243.6518 15.44675188230925
GAOFEN-3 03             
1 52200U 22035A   26129.16990709 -.00000072  00000+0 -87634-5 0  9995
2 52200  98.4079 138.3155 0001074  70.9505 289.1801 14.42218249215220
DAQI-1                  
1 52257U 22039A   26129.08718688  .00000477  00000+0  11460-3 0  9995
2 52257  98.1468  68.7527 0004469  33.6109 326.5373 14.57654591216240
BRO-6                   
1 52422U 22047AE  26129.19081187  .00028257  00000+0  53641-3 0  9990
2 52422  97.3389 219.5733 0004875 196.3438 163.7656 15.48249641225113
JILIN-1 GAOFEN 3D27     
1 52444U 22048B   26129.17613169  .00072714  00000+0  65867-3 0  9994
2 52444  97.5669 239.8507 0005582 180.3866 179.7391 15.67813909223350
JILIN-1 GAOFEN 3D28     
1 52445U 22048C   26129.17217206  .00081610  00000+0  68015-3 0  9990
2 52445  97.5610 239.8767 0004280 194.7685 165.3452 15.69832802223395
VIGORIDE-3              
1 52760U 22057AE  26129.09688602  .00004905  00000+0  18869-3 0  9997
2 52760  97.6550 268.0618 0007103 259.5785 100.4653 15.26871779219191
ION SCV-006             
1 52761U 22057AF  26128.97559358  .00009289  00000+0  20219-3 0  9991
2 52761  97.6055 275.7590 0016393 254.4634 105.4804 15.44394033220068
SHERPA-AC1              
1 52763U 22057AH  26129.17385209  .00006362  00000+0  18556-3 0  9998
2 52763  97.6641 276.8040 0006783 223.3502 136.7208 15.35713645219713
OMNI-L2                 
1 52771U 22057AR  26129.14662953  .00001062  00000+0  14228-3 0  9992
2 52771  97.4734 194.1271 0008389  93.8093 266.4080 14.81265617214614
STEP CUBE LAB-II        
1 52897U 22065D   26129.22727010  .00000464  00000+0  99368-4 0  9999
2 52897  98.2178 273.2615 0009375 140.4175 219.7713 14.63239530205801
RANDEV                  
1 52898U 22065E   26129.17024707  .00000712  00000+0  14616-3 0  9995
2 52898  98.2163 273.5391 0008670 140.4680 219.7155 14.63625337205543
SNUGLITE-II             
1 52899U 22065F   26129.14995200  .00000796  00000+0  16010-3 0  9990
2 52899  98.2150 274.0630 0008372 139.7068 220.4756 14.64273824205280
MIMAN                   
1 52900U 22065G   26129.10109404  .00000496  00000+0  10890-3 0  9999
2 52900  98.2207 271.7931 0008450 141.3979 218.7828 14.61799921204738
STARLINK-4362           
1 53043U 22077A   26129.05520701  .00013151  00000+0  91551-3 0  9997
2 53043  97.5164 309.4345 0001218  48.6414 311.4917 15.05584338209993
LARES-2                 
1 53105U 22080A   26127.16150228 -.00000008  00000+0  00000+0 0  9996
2 53105  70.1704 319.3995 0005357 343.8104  16.2342  6.38965197 89040
GREENCUBE (IO-117)      
1 53109U 22080E   26127.87446985 -.00000003  00000+0  00000+0 0  9991
2 53109  70.1441 312.2716 0008862 299.1563  60.8210  6.42583336 89473
STARLINK-4410           
1 53204U 22084R   26129.19071683  .00082366  00000+0  45595-2 0  9999
2 53204  97.6024 189.8025 0001437  84.2236 275.9159 15.13474065209079
COSMOS 2558             
1 53323U 22089A   26129.17265947  .00069013  00000+0  61376-3 0  9992
2 53323  97.2242 231.8749 0002687 180.6850 179.4408 15.68295156211701
