OBJECT_NAME,OBJECT_ID,EPOCH,MEAN_MOTION,ECCENTRICITY,INCLINATION,RA_OF_ASC_NODE,ARG_OF_PERICENTER,MEAN_ANOMALY,EPHEMERIS_TYPE,CLASSIFICATION_TYPE,NORAD_CAT_ID,ELEMENT_SET_NO,REV_AT_EPOCH,BSTAR,MEAN_MOTION_DOT,MEAN_MOTION_DDOT
LUDI TANCE 1-01B (L-SAR 01B),2022-018A,2026-05-09T03:44:29.501664,14.88411186,.0001598,97.8101,137.1276,92.4426,267.6973,0,U,51822,999,22790,.5888E-4,.491E-5,0
JILIN-1 GAOFEN 03D15,2022-019R,2026-05-09T05:42:03.721248,15.89839108,.000505,97.3637,224.4322,234.7081,125.3720,0,U,51839,999,23391,.92183E-3,.271469E-2,.28918E-4
JILIN-1 GAOFEN 03D12,2022-019T,2026-05-09T03:39:53.710272,15.90762076,.0005655,97.3607,224.2786,222.6407,137.4428,0,U,51841,999,23390,.92959E-3,.286926E-2,.32462E-4
2022-023F,2022-023F,2026-05-08T22:43:31.391904,15.17827836,.012757,63.4486,46.8752,344.1937,15.5208,0,U,51951,999,23175,.86106E-3,.21503E-3,0
MERIDIAN 10,2022-030A,2026-05-08T02:14:56.577696,2.00616612,.67731336,62.6801,145.0929,272.8903,17.7285,0,U,52145,999,3022,0,.235E-5,0
OMNI-L1,2022-033A,2026-05-09T04:06:40.840128,14.82604007,.000639,97.8394,209.1101,61.6595,298.5263,0,U,52157,999,22167,.19488E-3,.1517E-4,0
ENMAP,2022-033C,2026-05-09T05:25:16.260960,14.74954252,.0001473,97.9782,212.0284,86.2928,273.8449,0,U,52159,999,22091,.62457E-6,-.46E-6,0
ARCSAT-1,2022-033E,2026-05-09T05:02:32.335872,15.52661617,.0004209,97.2730,220.9368,0.9876,359.1384,0,U,52161,999,22965,.17285E-3,.10554E-3,0
GLOBAL-18,2022-034B,2026-05-09T03:06:14.461920,15.44675188,.0005783,52.9824,83.0613,116.5081,243.6518,0,U,52196,999,23092,.40453E-3,.18796E-3,0
GAOFEN-3 03,2022-035A,2026-05-09T04:04:39.972576,14.42218249,.0001074,98.4079,138.3155,70.9505,289.1801,0,U,52200,999,21522,-.87634E-5,-.72E-6,0
DAQI-1,2022-039A,2026-05-09T02:05:32.946432,14.57654591,.0004469,98.1468,68.7527,33.6109,326.5373,0,U,52257,999,21624,.1146E-3,.477E-5,0
BRO-6,2022-047AE,2026-05-09T04:34:46.145568,15.48249641,.0004875,97.3389,219.5733,196.3438,163.7656,0,U,52422,999,22511,.53641E-3,.28257E-3,0
JILIN-1 GAOFEN 3D27,2022-048B,2026-05-09T04:13:37.778016,15.67813909,.0005582,97.5669,239.8507,180.3866,179.7391,0,U,52444,999,22335,.65867E-3,.72714E-3,0
JILIN-1 GAOFEN 3D28,2022-048C,2026-05-09T04:07:55.665984,15.69832802,.000428,97.5610,239.8767,194.7685,165.3452,0,U,52445,999,22339,.68015E-3,.8161E-3,0
VIGORIDE-3,2022-057AE,2026-05-09T02:19:30.952128,15.26871779,.0007103,97.6550,268.0618,259.5785,100.4653,0,U,52760,999,21919,.18869E-3,.4905E-4,0
ION SCV-006,2022-057AF,2026-05-08T23:24:51.285312,15.44394033,.0016393,97.6055,275.7590,254.4634,105.4804,0,U,52761,999,22006,.20219E-3,.9289E-4,0
SHERPA-AC1,2022-057AH,2026-05-09T04:10:20.820576,15.35713645,.0006783,97.6641,276.8040,223.3502,136.7208,0,U,52763,999,21971,.18556E-3,.6362E-4,0
OMNI-L2,2022-057AR,2026-05-09T03:31:08.791392,14.81265617,.0008389,97.4734,194.1271,93.8093,266.4080,0,U,52771,999,21461,.14228E-3,.1062E-4,0
STEP CUBE LAB-II,2022-065D,2026-05-09T05:27:16.136640,14.63239530,.0009375,98.2178,273.2615,140.4175,219.7713,0,U,52897,999,20580,.99368E-4,.464E-5,0
RANDEV,2022-065E,2026-05-09T04:05:09.346848,14.63625337,.000867,98.2163,273.5391,140.4680,219.7155,0,U,52898,999,20554,.14616E-3,.712E-5,0
SNUGLITE-II,2022-065F,2026-05-09T03:35:55.852800,14.64273824,.0008372,98.2150,274.0630,139.7068,220.4756,0,U,52899,999,20528,.1601E-3,.796E-5,0
MIMAN,2022-065G,2026-05-09T02:25:34.525056,14.61799921,.000845,98.2207,271.7931,141.3979,218.7828,0,U,52900,999,20473,.1089E-3,.496E-5,0
STARLINK-4362,2022-077A,2026-05-09T01:19:29.885664,15.05584338,.0001218,97.5164,309.4345,48.6414,311.4917,0,U,53043,999,20999,.91551E-3,.13151E-3,0
LARES-2,2022-080A,2026-05-07T03:52:33.796992,6.38965197,.0005357,70.1704,319.3995,343.8104,16.2342,0,U,53105,999,8904,0,-.8E-7,0
GREENCUBE (IO-117),2022-080E,2026-05-07T20:59:14.195040,6.42583336,.0008862,70.1441,312.2716,299.1563,60.8210,0,U,53109,999,8947,0,-.3E-7,0
STARLINK-4410,2022-084R,2026-05-09T04:34:37.934112,15.13474065,.0001437,97.6024,189.8025,84.2236,275.9159,0,U,53204,999,20907,.45595E-2,.82366E-3,0
COSMOS 2558,2022-089A,2026-05-09T04:08:37.778208,15.68295156,.0002687,97.2242,231.8749,180.6850,179.4408,0,U,53323,999,21170,.61376E-3,.69013E-3,0
